0 COSMOS 2251 DEB
1 33982U 93036FR  13281.79626278  .00001080  00000-0  28056-3 0  8439
2 33982 074.0751 084.3015 0092590 209.4549 215.1099 14.48411380245956
0 COSMOS 2251 DEB
1 33982U 93036FR  13284.15441153  .00001265  00000-0  32735-3 0  8444
2 33982 074.0753 079.8942 0092484 204.4646 271.1574 14.48419299246296
0 COSMOS 2251 DEB
1 33982U 93036FR  13286.49136624  .00001066  00000-0  27695-3 0  8456
2 33982 074.0759 075.5265 0092387 199.5193 216.7455 14.48424395246630
0 COSMOS 2251 DEB
1 33982U 93036FR  13288.49516987  .00001691  00000-0  43498-3 0  8466
2 33982 074.0763 071.7815 0092296 195.2950 225.2071 14.48430675246926
0 COSMOS 2251 DEB
1 33982U 93036FR  13290.78634384  .00001467  00000-0  37822-3 0  8479
2 33982 074.0767 067.4999 0092157 190.4638 292.1648 14.48438212247256
0 COSMOS 2251 DEB
1 33982U 93036FR  13292.79479359  .00001612  00000-0  41486-3 0  8485
2 33982 074.0768 063.7464 0092041 186.2152 324.9661 14.48442773247547
0 COSMOS 2251 DEB
1 33982U 93036FR  13294.79776920  .00001617  00000-0  41609-3 0  8494
2 33982 074.0769 060.0034 0091938 181.9337 329.3052 14.48450160247836
